ARIANE 5 R/B            
1 28499U 04049H   25361.47611071  .00001536  00000+0  17613-3 0  9998
2 28499  98.2531 162.2868 0083594 224.6053 134.8414 14.85051254135072
CZ-2D R/B               
1 28738U 05024B   25361.98664897  .00037038  00000+0  57044-3 0  9996
2 28738  97.3632   9.8422 0003235 298.0644  62.0282 15.54103539128626
ALOS (DAICHI)           
1 28931U 06002A   25351.73419158  .00001110  00000+0  19545-3 0  9994
2 28931  98.1098 303.1864 0001361 113.5739 246.5610 14.69501788 61443
H-2A R/B                
1 28932U 06002B   25362.11133983  .00012168  00000+0  63299-3 0  9998
2 28932  98.2324 138.1193 0054967 124.4613 236.1828 15.14885641 83590
RESURS-DK 1             
1 29228U 06021A   25362.11046341  .00003731  00000+0  22132-3 0  9996
2 29228  69.9341  62.1120 0007009 245.4281 114.6155 15.12250720 76709
CZ-4B R/B               
1 29507U 06046C   25362.08285328  .00006261  00000+0  32441-3 0  9994
2 29507  97.5716  42.1792 0034542 153.4159 206.8854 15.16027359 49196
CZ-2C R/B               
1 31114U 07010B   25361.93644483  .00000203  00000+0  11224-3 0  9993
2 31114  98.3974 113.8226 0059731 142.0734 218.4673 14.20216211969534
COSMO-SKYMED 1          
1 31598U 07023A   25362.17383736  .00004686  00000+0  42423-3 0  9995
2 31598  97.8837 187.6752 0001052  78.7073 281.4265 14.95881752  4211
COSMOS 2428             
1 31792U 07029A   25362.10146916  .00000284  00000+0  17828-3 0  9998
2 31792  70.9370 353.6257 0004552   2.2563 357.8577 14.12896819953980
SL-16 R/B               
1 31793U 07029B   25362.14585536  .00000292  00000+0  17600-3 0  9995
2 31793  70.9768 322.7721 0001916 267.4574 103.4788 14.14820902955256
KORONAS-FOTON           
1 33504U 09003A   25362.01075492  .00010299  00000+0  24421-3 0  9999
2 33504  82.4309 350.2776 0013143  61.1160 299.1403 15.41486416934699
CZ-2C R/B               
1 37731U 11030B   25361.79606648  .00001621  00000+0  21178-3 0  9990
2 37731  97.8435 315.5714 0051679 223.2870 197.0184 14.80948198779451
H-2A R/B                
1 38341U 12025E   25361.90505546  .00004591  00000+0  42265-3 0  9990
2 38341  98.4620 318.3072 0044740 185.4303 174.6436 14.94545079737496
SHIJIAN-16 (SJ-16)      
1 39358U 13057A   25362.22590530  .00000948  00000+0  96121-4 0  9991
2 39358  74.9737 320.3513 0017934 283.9712  75.9481 14.92033493660846
SL-4 R/B                
1 39679U 14021B   25362.15676238  .00013292  00000+0  31403-3 0  9998
2 39679  51.6090 325.6498 0100497 201.9034 157.7638 15.37036693645267
ALOS-2                  
1 39766U 14029A   25362.23097402  .00002557  00000+0  34908-3 0  9997
2 39766  97.9215  96.8558 0001463 103.1930 256.9445 14.79474809626303
YAOGAN-29               
1 41038U 15069A   25362.20434995  .00000144  00000+0  24484-4 0  9995
2 41038  98.0211  25.4246 0001069 158.3197 201.8062 14.82897979545289
ASTRO-H (HITOMI)        
1 41337U 16012A   25361.96598890  .00004619  00000+0  27560-3 0  9991
2 41337  30.9995  99.2030 0009659 331.2708  28.7397 15.09455068541381
HXMT (HUIYAN)           
1 42758U 17034A   25362.20496561  .00008020  00000+0  41174-3 0  9991
2 42758  43.0146  53.7976 0031564 144.6900 215.6046 15.16424299471689
CZ-2C R/B               
1 43521U 18054D   25361.56033362  .00145742  00000+0  83274-3 0  9997
2 43521  35.1325  80.1600 0014184 290.6341  69.2872 15.77311118417397
SAOCOM 1A               
1 43641U 18076A   25362.19935146 -.00000246  00000+0 -24301-4 0  9993
2 43641  97.8847 186.3959 0001340  83.0822 277.0543 14.82146964390774
H-2A R/B                
1 43682U 18084L   25362.05019536  .00024010  00000+0  63738-3 0  9997
2 43682  98.8773 199.3091 0026389 272.6168  87.2051 15.37951582394756
SAOCOM 1B               
1 46265U 20059A   25362.16309108  .00000691  00000+0  93372-4 0  9998
2 46265  97.8845 185.4601 0001464  84.6084 275.5296 14.82155334288152
CSS (TIANHE)            
1 48274U 21035A   25362.14831690  .00021938  00000+0  26879-3 0  9993
2 48274  41.4673 283.1187 0008946 164.7819 195.3290 15.59789598266431
COSMOS 2550             
1 48865U 21056A   25362.04982924 -.00000149  00000+0  12962-5 0  9990
2 48865  67.1448 257.6257 0008373 269.7459  90.2736 15.33830504252479
CZ-2C R/B               
1 52794U 22058K   25361.64558459  .00037206  00000+0  64697-3 0  9999
2 52794  50.1923 327.4922 0044461 259.8008  99.7944 15.49275197198942
CZ-2C R/B               
1 54039U 22132E   25361.98374628  .00037496  00000+0  53848-3 0  9994
2 54039  97.2952 358.4840 0020475   4.5506 355.5931 15.55773002179202
GSLV R/B                
1 54149U 22138AN  25361.97121318  .00002987  00000+0  26109-3 0  9994
2 54149  87.3823 190.3723 0023794  55.7833 304.5648 14.96209672173206
XRISM                   
1 57800U 23137A   25362.16588727  .00007822  00000+0  45726-3 0  9993
2 57800  31.0032  25.9363 0007578  40.9515 319.1691 15.10505512126969
ACS3                    
1 59588U 24077B   25361.91576862  .00029346  00000+0  24825-1 0  9991
2 59588  97.2570 314.1314 0073257 300.6710  58.7246 13.86214031 84244
SZ-21 MODULE            
1 66515U 25246C   25362.13106942  .00032949  00000+0  35029-3 0  9994
2 66515  41.4763 282.1006 0003923 343.9994  16.0721 15.63328150  6857
